PROBA-1                 
1 26958U 01049B   26160.90152566  .00002592  00000+0  16960-3 0  9995
2 26958  97.9603 169.1793 0055687 146.3329 214.1456 15.07465180342527
CUTE-1 (CO-55)          
1 27844U 03031E   26160.73137062  .00000266  00000+0  13414-3 0  9995
2 27844  98.6735 169.3839 0009036 200.1395 159.9429 14.24331147190618
CUBESAT XI-IV (CO-57)   
1 27848U 03031J   26160.01325554  .00000222  00000+0  11652-3 0  9999
2 27848  98.6766 168.3941 0008561 222.5153 137.5363 14.23616414190218
APRIZESAT 4             
1 35684U 09041D   26160.77211969  .00000599  00000+0  78094-4 0  9991
2 35684  98.1412 235.9447 0042917 347.4797  12.5347 14.83869491910264
APRIZESAT 3             
1 35686U 09041F   26160.67578642  .00001221  00000+0  10988-3 0  9996
2 35686  98.2052 313.5406 0062782  91.8682 268.9730 14.96219098915253
PROBA-2                 
1 36037U 09059B   26160.74393205  .00000177  00000+0  51680-4 0  9998
2 36037  98.2451 344.2000 0012193 307.4414  52.5673 14.54859226880440
APRIZESAT 5             
1 37792U 11044E   26160.71084417  .00001067  00000+0  14185-3 0  9990
2 37792  98.2453  93.5394 0052929  28.1689 332.2368 14.81059656797684
APRIZESAT 6             
1 37793U 11044F   26160.76319060  .00000658  00000+0  99936-4 0  9994
2 37793  98.2371  71.1111 0044384 109.0727 318.0190 14.76904932796056
PROBA-V                 
1 39159U 13021A   26160.66896682  .00000073  00000+0  50053-4 0  9996
2 39159  98.3581 139.6469 0004817 141.4259 218.7266 14.23595395680043
APRIZESAT 7             
1 39416U 13066A   26160.77453276  .00000908  00000+0  95381-4 0  9991
2 39416  97.7706 114.1012 0034505 234.5518 125.2478 14.91548696680125
APRIZESAT 8             
1 39425U 13066K   26160.74269135  .00000959  00000+0  10980-3 0  9994
2 39425  97.8218 108.3146 0044772 311.8012  47.9383 14.87638123678562
BUGSAT-1 (TITA)         
1 40014U 14033E   26160.97162834  .00004725  00000+0  25114-3 0  9998
2 40014  98.0417 253.0989 0027481 202.8957 157.1051 15.15506305654748
SAUDISAT 4              
1 40016U 14033G   26160.67957305  .00000695  00000+0  98056-4 0  9990
2 40016  97.7575 307.0745 0046236  97.6565 262.9902 14.79534459644968
APRIZESAT 9             
1 40018U 14033J   26160.33415850  .00000594  00000+0  94845-4 0  9999
2 40018  97.9050 293.7252 0065171 224.6876 134.9071 14.74203919642401
APRIZESAT 10            
1 40019U 14033K   26160.30350137  .00000368  00000+0  65867-4 0  9994
2 40019  97.9640 287.4392 0077584 299.4562  59.8920 14.70875579641090
TECHDEMOSAT-1 (TDS-1)   
1 40076U 14037H   26160.55421096  .00006685  00000+0  38094-3 0  9990
2 40076  98.3811 152.0111 0004605 301.7749  58.3031 15.13180756647077
TECHNOSAT               
1 42829U 17042E   26160.40344424  .00002660  00000+0  19145-3 0  9995
2 42829  97.4264 318.3590 0018830 118.8363 241.4757 15.04906105485534
FLYING LAPTOP           
1 42831U 17042G   26160.91972382  .00004081  00000+0  32211-3 0  9992
2 42831  97.4660 316.7345 0019221 145.4184 214.8295 15.01100148485361
HAWK-A                  
1 43765U 18099H   26160.66906314  .00005670  00000+0  22965-3 0  9996
2 43765  97.3919 213.0030 0033447 313.6456  46.2008 15.24554278411956
HAWK-B                  
1 43794U 18099AN  26160.68165989  .00005605  00000+0  24009-3 0  9994
2 43794  97.3968 212.4462 0031073 332.4206  27.5381 15.22743086411893
HAWK-C                  
1 43799U 18099AT  26160.59709099  .00006624  00000+0  23990-3 0  9995
2 43799  97.3896 213.8073 0039117 313.8174  45.9833 15.27997144412758
SALSAT                  
1 46495U 20068K   26160.75398104  .00007599  00000+0  26681-3 0  9991
2 46495  97.8854 163.3666 0008713 338.5586  21.5287 15.29692121314224
HAWK-2C                 
1 47502U 21006CT  26160.65367832  .00005908  00000+0  17866-3 0  9994
2 47502  97.2284 205.1142 0005836 214.0807 146.0063 15.34572133298341
HAWK-2A                 
1 47505U 21006CW  26160.85186400  .00006054  00000+0  18292-3 0  9996
2 47505  97.2326 205.9818 0005300 216.9927 143.0951 15.34589806298370
HAWK-2B                 
1 47508U 21006CZ  26160.65218324  .00006631  00000+0  19963-3 0  9995
2 47508  97.2197 204.1299 0005819 215.9711 144.1142 15.34663468298346
HAWK-3B                 
1 48931U 21059BE  26160.79984829  .00044260  00000+0  38485-3 0  9999
2 48931  97.6676 356.8130 0003724   5.0014 355.1283 15.68942209276693
HAWK-3C                 
1 48948U 21059BX  26160.79953193  .00044804  00000+0  38967-3 0  9996
2 48948  97.6795   2.4854 0004267   6.7542 353.3776 15.68931311276696
HAWK-3A                 
1 48957U 21059CG  26160.79943262  .00045488  00000+0  39550-3 0  9990
2 48957  97.6738 359.6966 0004210   7.4033 352.7289 15.68935896276699
HAWK-5C                 
1 52754U 22057Y   26160.69046710  .00017632  00000+0  30370-3 0  9991
2 52754  97.6588 319.8768 0005377 104.7995 255.3852 15.51125293225189
HAWK-5B                 
1 52756U 22057AA  26160.69031940  .00017411  00000+0  29988-3 0  9990
2 52756  97.6594 318.2252 0006015  97.8819 262.3116 15.51125538225189
