OBJECT_NAME,OBJECT_ID,EPOCH,MEAN_MOTION,ECCENTRICITY,INCLINATION,RA_OF_ASC_NODE,ARG_OF_PERICENTER,MEAN_ANOMALY,EPHEMERIS_TYPE,CLASSIFICATION_TYPE,NORAD_CAT_ID,ELEMENT_SET_NO,REV_AT_EPOCH,BSTAR,MEAN_MOTION_DOT,MEAN_MOTION_DDOT
PROBA-1,2001-049B,2026-06-09T21:38:11.817024,15.07465180,.00556871,97.9603,169.1793,146.3329,214.1456,0,U,26958,999,34252,.16960327E-3,.2592E-4,0
CUTE-1 (CO-55),2003-031E,2026-06-09T17:33:10.421568,14.24331147,.00090363,98.6735,169.3839,200.1395,159.9429,0,U,27844,999,19061,.13413721E-3,.266E-5,0
CUBESAT XI-IV (CO-57),2003-031J,2026-06-09T00:19:05.278656,14.23616414,.00085614,98.6766,168.3941,222.5153,137.5363,0,U,27848,999,19021,.11651716E-3,.222E-5,0
APRIZESAT 4,2009-041D,2026-06-09T18:31:51.141216,14.83869491,.00429174,98.1412,235.9447,347.4797,12.5347,0,U,35684,999,91026,.7809415E-4,.599E-5,0
APRIZESAT 3,2009-041F,2026-06-09T16:13:07.946688,14.96219098,.00627823,98.2052,313.5406,91.8682,268.9730,0,U,35686,999,91525,.10987757E-3,.1221E-4,0
PROBA-2,2009-059B,2026-06-09T17:51:15.729120,14.54859226,.00121934,98.2451,344.2000,307.4414,52.5673,0,U,36037,999,88044,.51680069E-4,.177E-5,0
APRIZESAT 5,2011-044E,2026-06-09T17:03:36.936288,14.81059656,.00529292,98.2453,93.5394,28.1689,332.2368,0,U,37792,999,79768,.14184586E-3,.1067E-4,0
APRIZESAT 6,2011-044F,2026-06-09T18:18:59.667840,14.76904932,.00443841,98.2371,71.1111,109.0727,318.0190,0,U,37793,999,79605,.99935979E-4,.658E-5,0
PROBA-V,2013-021A,2026-06-09T16:03:18.733248,14.23595395,.00048173,98.3581,139.6469,141.4259,218.7266,0,U,39159,999,68004,.50053085E-4,.73E-6,0
APRIZESAT 7,2013-066A,2026-06-09T18:35:19.630464,14.91548696,.00345053,97.7706,114.1012,234.5518,125.2478,0,U,39416,999,68012,.95381071E-4,.908E-5,0
APRIZESAT 8,2013-066K,2026-06-09T17:49:28.532640,14.87638123,.00447729,97.8218,108.3146,311.8012,47.9383,0,U,39425,999,67856,.10980359E-3,.959E-5,0
BUGSAT-1 (TITA),2014-033E,2026-06-09T23:19:08.688576,15.15506305,.0027481,98.0417,253.0989,202.8957,157.1051,0,U,40014,999,65474,.25114099E-3,.4725E-4,0
SAUDISAT 4,2014-033G,2026-06-09T16:18:35.111520,14.79534459,.00462365,97.7575,307.0745,97.6565,262.9902,0,U,40016,999,64496,.98056281E-4,.695E-5,0
APRIZESAT 9,2014-033J,2026-06-09T08:01:11.294400,14.74203919,.00651711,97.9050,293.7252,224.6876,134.9071,0,U,40018,999,64240,.94845279E-4,.594E-5,0
APRIZESAT 10,2014-033K,2026-06-09T07:17:02.518368,14.70875579,.00775848,97.9640,287.4392,299.4562,59.8920,0,U,40019,999,64109,.65866618E-4,.368E-5,0
TECHDEMOSAT-1 (TDS-1),2014-037H,2026-06-09T13:18:03.826944,15.13180756,.00046056,98.3811,152.0111,301.7749,58.3031,0,U,40076,999,64707,.38094371E-3,.6685E-4,0
TECHNOSAT,2017-042E,2026-06-09T09:40:57.582336,15.04906105,.00188307,97.4264,318.3590,118.8363,241.4757,0,U,42829,999,48553,.19144777E-3,.266E-4,0
FLYING LAPTOP,2017-042G,2026-06-09T22:04:24.138048,15.01100148,.00192219,97.4660,316.7345,145.4184,214.8295,0,U,42831,999,48536,.32210797E-3,.4081E-4,0
HAWK-A,2018-099H,2026-06-09T16:03:27.055296,15.24554278,.00334472,97.3919,213.0030,313.6456,46.2008,0,U,43765,999,41195,.22965053E-3,.567E-4,0
HAWK-B,2018-099AN,2026-06-09T16:21:35.414496,15.22743086,.00310732,97.3968,212.4462,332.4206,27.5381,0,U,43794,999,41189,.24008747E-3,.5605E-4,0
HAWK-C,2018-099AT,2026-06-09T14:19:48.661536,15.27997144,.00391173,97.3896,213.8073,313.8174,45.9833,0,U,43799,999,41275,.23989925E-3,.6624E-4,0
SALSAT,2020-068K,2026-06-09T18:05:43.961856,15.29692121,.00087133,97.8854,163.3666,338.5586,21.5287,0,U,46495,999,31422,.26681047E-3,.7599E-4,0
HAWK-2C,2021-006CT,2026-06-09T15:41:17.806848,15.34572133,.00058363,97.2284,205.1142,214.0807,146.0063,0,U,47502,999,29834,.17865705E-3,.5908E-4,0
HAWK-2A,2021-006CW,2026-06-09T20:26:41.049600,15.34589806,.00053002,97.2326,205.9818,216.9927,143.0951,0,U,47505,999,29837,.18291829E-3,.6054E-4,0
HAWK-2B,2021-006CZ,2026-06-09T15:39:08.631936,15.34663468,.00058199,97.2197,204.1299,215.9711,144.1142,0,U,47508,999,29834,.19963179E-3,.6631E-4,0
HAWK-3B,2021-059BE,2026-06-09T19:11:46.892256,15.68942209,.00037242,97.6676,356.8130,5.0014,355.1283,0,U,48931,999,27669,.38485102E-3,.4426E-3,0
HAWK-3C,2021-059BX,2026-06-09T19:11:19.558752,15.68931311,.00042677,97.6795,2.4854,6.7542,353.3776,0,U,48948,999,27669,.38967371E-3,.44804E-3,0
HAWK-3A,2021-059CG,2026-06-09T19:11:10.978368,15.68935896,.00042103,97.6738,359.6966,7.4033,352.7289,0,U,48957,999,27669,.3955024E-3,.45488E-3,0
HAWK-5C,2022-057Y,2026-06-09T16:34:16.357440,15.51125293,.00053774,97.6588,319.8768,104.7995,255.3852,0,U,52754,999,22518,.30369639E-3,.17632E-3,0
HAWK-5B,2022-057AA,2026-06-09T16:34:03.596160,15.51125538,.00060159,97.6594,318.2252,97.8819,262.3116,0,U,52756,999,22518,.29988156E-3,.17411E-3,0
